NOAA 1 [-]              
1 04793U 70106A   21348.48967904 -.00000053  00000+0 -54898-4 0  9999
2 04793 101.5865  51.7730 0031326 322.3082 164.0551 12.54001909334406
NOAA 2 (ITOS-D) [-]     
1 06235U 72082A   21348.88946149 -.00000023  00000+0  14298-3 0  9994
2 06235 101.9304 325.1509 0004288  66.8568 358.9582 12.53141463248859
NOAA 3 [-]              
1 06920U 73086A   21348.92402451 -.00000026  00000+0  14586-3 0  9991
2 06920 102.1840 325.0805 0006409 273.3409 141.3575 12.40344165177916
NOAA 4 [-]              
1 07529U 74089A   21348.93825604 -.00000031  00000+0  94836-4 0  9994
2 07529 101.8892 323.2207 0009183  96.1807 276.0051 12.53153030153435
NOAA 5 [-]              
1 09057U 76077A   21348.87427997 -.00000011  00000+0  25601-3 0  9998
2 09057 102.0712 314.0338 0009871 117.7588 297.2932 12.37765466 51120
TIROS N [-]             
1 11060U 78096A   21348.59315592  .00000015  00000+0  28200-4 0  9996
2 11060  98.6650  41.9820 0009792 319.7021  40.3428 14.18338235445640
NOAA 6 [-]              
1 11416U 79057A   21349.02064114  .00000048  00000+0  33361-4 0  9999
2 11416  98.6672 354.5715 0011395  83.7979 276.4503 14.33675210215305
NOAA 7 [-]              
1 12553U 81059A   21349.11865737 -.00000023  00000+0  11475-4 0  9993
2 12553  99.0267  25.9939 0010538 280.6182  79.3805 14.17308462 91909
NOAA 8 [-]              
1 13923U 83022A   21348.89878933  .00000024  00000+0  26947-4 0  9993
2 13923  98.6715 335.3273 0015736  32.7370 327.4783 14.28759609 16053
NOAA 9 [-]              
1 15427U 84123A   21348.90778412  .00000009  00000+0  27580-4 0  9997
2 15427  99.0203 313.6604 0014462 332.2858  85.1800 14.16156377910727
NOAA 10 [-]             
1 16969U 86073A   21348.98639595  .00000019  00000+0  24847-4 0  9995
2 16969  98.5504 333.7299 0012988 130.2170 293.3407 14.28156527834769
NOAA 11 [-]             
1 19531U 88089A   21348.89525007  .00000000  00000+0  20824-4 0  9995
2 19531  98.4115 343.2614 0011073 356.7865   3.3237 14.15285900714717
NOAA 12 [-]             
1 21263U 91032A   21348.88176880  .00000013  00000+0  23121-4 0  9999
2 21263  98.5089 348.9469 0014128 155.3170 204.8689 14.25958797590420
NOAA 13 [-]             
1 22739U 93050A   21348.95984358  .00000031  00000+0  38520-4 0  9994
2 22739  98.4848 333.1740 0010025 146.4074 213.7736 14.12804588461248
NOAA 14 [-]             
1 23455U 94089A   21348.89208502 -.00000005  00000+0  18862-4 0  9995
2 23455  98.4701  20.3677 0010331 130.8435 229.3636 14.14174879390624
NOAA 15 [B]             
1 25338U 98030A   21349.45767690  .00000046  00000+0  37575-4 0  9994
2 25338  98.6652  16.2097 0011369 112.1370 248.1018 14.26075657227041
NOAA 16 [-]             
1 26536U 00055A   21348.83328578 -.00000010  00000+0  17409-4 0  9990
2 26536  98.6655  48.8556 0009997 338.1409  21.9336 14.13296439391279
NOAA 17 [-]             
1 27453U 02032A   21349.13073208  .00000020  00000+0  27020-4 0  9997
2 27453  98.6504 291.7699 0012956  88.0958 272.1705 14.25082697 12628
NOAA 18 [B]             
1 28654U 05018A   21349.48444599  .00000110  00000+0  83356-4 0  9995
2 28654  98.9741  54.8797 0015082 129.5507 230.6999 14.12666621854099
NOAA 19 [+]             
1 33591U 09005A   21349.39459169  .00000046  00000+0  49999-4 0  9993
2 33591  99.1697  14.4675 0013679 348.6769  11.4092 14.12514746662466
SUOMI NPP [+]           
1 37849U 11061A   21349.45650584  .00000008  00000+0  24602-4 0  9991
2 37849  98.7151 285.7317 0001280 101.2828   6.0146 14.19568897525085
NOAA 20 [+]             
1 43013U 17073A   21349.39899422 -.00000010  00000+0  15975-4 0  9996
2 43013  98.7391 285.4163 0000930 101.3581 258.7700 14.19564427211118
